[{"OBJECT_NAME":"STARLINK-5785","OBJECT_ID":"2023-042AX","EPOCH":"2026-03-09T22:00:01.999584","MEAN_MOTION":15.06054886,"ECCENTRICITY":0.00015044,"INCLINATION":43.0004,"RA_OF_ASC_NODE":41.7371,"ARG_OF_PERICENTER":292.4455,"MEAN_ANOMALY":150.7985,"EPHEMERIS_TYPE":0,"CLASSIFICATION_TYPE":"U","NORAD_CAT_ID":56031,"ELEMENT_SET_NO":999,"REV_AT_EPOCH":578,"BSTAR":0.0038859445,"MEAN_MOTION_DOT":0.00057943,"MEAN_MOTION_DDOT":0},{"OBJECT_NAME":"OBJECT A","OBJECT_ID":"2025-292A","EPOCH":"2026-03-09T21:45:44.016480","MEAN_MOTION":15.05451809,"ECCENTRICITY":0.00146319,"INCLINATION":97.6364,"RA_OF_ASC_NODE":145.598,"ARG_OF_PERICENTER":341.1551,"MEAN_ANOMALY":18.9132,"EPHEMERIS_TYPE":0,"CLASSIFICATION_TYPE":"U","NORAD_CAT_ID":66993,"ELEMENT_SET_NO":999,"REV_AT_EPOCH":1350,"BSTAR":0.00038878249,"MEAN_MOTION_DOT":5.535e-5,"MEAN_MOTION_DDOT":0}]
